ASTROCAST-0103          
1 47487U 21006CC  26068.70056502  .00087857  00000+0  63760-3 0  9995
2 47487  97.2627 138.0845 0005706 147.8600 212.3013 15.73114428285528
STARLINK-11408 [DTC]    
1 63064U 25035N   26068.87228015  .00236329  00000+0  17904-2 0  9996
2 63064  42.9989  13.8729 0000796 242.7553 117.3234 15.70879016 61251
